STARLINK-31171          
1 58834U 24017J   26068.56937101 -.00000681  00000+0 -10870-4 0  9992
2 58834  53.1616 181.3233 0001297  95.9703 264.1445 15.30187631120368
JINJUSAT-1B             
1 63210U 25052A   26068.66363707  .00019955  00000+0  68430-3 0  9998
2 63210  97.4113 325.4613 0005550  82.1930 277.9941 15.30194857 54866
